NOAA 15                 
1 25338U 98030A   22308.80597448  .00000235  00000+0  11620-3 0  9993
2 25338  98.6324 336.4315 0009397 245.7381 114.2818 14.26191450273020
NOAA 18                 
1 28654U 05018A   22308.78848647  .00000247  00000+0  15696-3 0  9998
2 28654  98.9363  19.0240 0013303 296.2669  63.7135 14.12801337899888
NOAA 19                 
1 33591U 09005A   22308.87665914  .00000232  00000+0  15035-3 0  9999
2 33591  99.1334 345.8715 0014406 150.5735 209.6250 14.12632500708010
METOP-B                 
1 38771U 12049A   22308.89575233  .00000182  00000+0  10314-3 0  9991
2 38771  98.7128   6.6425 0000999  58.3370 287.1803 14.21489835525689
SARAL                   
1 39086U 13009A   22308.82869584  .00000169  00000+0  79242-4 0  9997
2 39086  98.5470 132.4079 0000873 146.8999 213.2239 14.32042877506574
METOP-C                 
1 43689U 18087A   22308.86483924  .00000171  00000+0  98409-4 0  9995
2 43689  98.7174   6.6345 0003082  11.1768 348.9477 14.21483479207250
ANGELS                  
1 44876U 19092D   22308.78277532  .00005795  00000+0  28228-3 0  9996
2 44876  97.4748 130.5095 0010731 224.9553 135.0813 15.18694168159538
GAZELLE                 
1 54023U 22127A   22308.78396174 -.00000043  00000+0  00000+0 0  9994
2 54023  98.3153 307.4207 0012290 211.1323 148.9151 14.41649283  4044
